{"type": "FeatureCollection", "features": [ {"type": "Feature", "properties": {"norad_id": 32289, "name": "YAOGAN-3", "group": "resource", "lat": 81.77339241454824, "lon": -62.23386939920875, "alt_km": 590.0411670131352, "timestamp": "2025-12-09T09:46:47.303573+00:00", "meta": {"OBJECT_NAME": "YAOGAN-3", "OBJECT_ID": "2007-055A", "EPOCH": "2025-12-08T23:43:01.665408", "MEAN_MOTION": 14.89829545, "ECCENTRICITY": 0.00014429, "INCLINATION": 97.8367, "RA_OF_ASC_NODE": 9.6465, "ARG_OF_PERICENTER": 72.6475, "MEAN_ANOMALY": 287.4901, "EPHEMERIS_TYPE": 0, "CLASSIFICATION_TYPE": "U", "NORAD_CAT_ID": 32289, "ELEMENT_SET_NO": 999, "REV_AT_EPOCH": 97753, "BSTAR": 0.00021982599, "MEAN_MOTION_DOT": 2.055e-05, "MEAN_MOTION_DDOT": 0}, "tle": {"line1": "1 32289U 07055A   25342.98821372  .00002055  00000+0  21983-3 0  9994", "line2": "2 32289  97.8367   9.6465 0001442  72.6475 287.4901 14.89829545977535"}}, "geometry": {"type": "Point", "coordinates": [-62.23386939920875, 81.77339241454824]}}, {"type": "Feature", "properties": {"norad_id": 32376, "name": "COSMO-SKYMED 2", "group": "resource", "lat": 78.34428459712335, "lon": 26.964391078411545, "alt_km": 614.1623518401466, "timestamp": "2025-12-09T09:46:47.303592+00:00", "meta": {"OBJECT_NAME": "COSMO-SKYMED 2", "OBJECT_ID": "2007-059A", "EPOCH": "2025-12-08T23:36:54.786816", "MEAN_MOTION": 14.82158375, "ECCENTRICITY": 0.00015311, "INCLINATION": 97.8812, "RA_OF_ASC_NODE": 164.3642, "ARG_OF_PERICENTER": 85.8713, "MEAN_ANOMALY": 274.2675, "EPHEMERIS_TYPE": 0, "CLASSIFICATION_TYPE": "U", "NORAD_CAT_ID": 32376, "ELEMENT_SET_NO": 999, "REV_AT_EPOCH": 97382, "BSTAR": 0.00011660614, "MEAN_MOTION_DOT": 8.76e-06, "MEAN_MOTION_DDOT": 0}, "tle": {"line1": "1 32376U 07059A   25342.98396744  .00000876  00000+0  11661-3 0  9996", "line2": "2 32376  97.8812 164.3642 0001531  85.8713 274.2675 14.82158375973822"}}, "geometry": {"type": "Point", "coordinates": [26.964391078411545, 78.34428459712335]}}, {"type": "Feature", "properties": {"norad_id": 32382, "name": "RADARSAT-2", "group": "resource", "lat": -46.98466186748704, "lon": -2.642767651607233, "alt_km": 799.080396929352, "timestamp": "2025-12-09T09:46:47.303603+00:00", "meta": {"OBJECT_NAME": "RADARSAT-2", "OBJECT_ID": "2007-061A", "EPOCH": "2025-12-08T23:55:35.857920", "MEAN_MOTION": 14.29985445, "ECCENTRICITY": 0.00010741, "INCLINATION": 98.5794, "RA_OF_ASC_NODE": 347.6411, "ARG_OF_PERICENTER": 87.7122, "MEAN_ANOMALY": 272.4183, "EPHEMERIS_TYPE": 0, "CLASSIFICATION_TYPE": "U", "NORAD_CAT_ID": 32382, "ELEMENT_SET_NO": 999, "REV_AT_EPOCH": 93877, "BSTAR": 2.3292143e-05, "MEAN_MOTION_DOT": 1.6e-07, "MEAN_MOTION_DDOT": 0}, "tle": {"line1": "1 32382U 07061A   25342.99694280  .00000016  00000+0  23292-4 0  9993", "line2": "2 32382  98.5794 347.6411 0001074  87.7122 272.4183 14.29985445938779"}}, "geometry": {"type": "Point", "coordinates": [-2.642767651607233, -46.98466186748704]}}, {"type": "Feature", "properties": {"norad_id": 32783, "name": "CARTOSAT-2A", "group": "resource", "lat": -79.64192162646593, "lon": 81.86313404491358, "alt_km": 641.2607778749225, "timestamp": "2025-12-09T09:46:47.303614+00:00", "meta": {"OBJECT_NAME": "CARTOSAT-2A", "OBJECT_ID": "2008-021A", "EPOCH": "2025-12-09T03:39:35.161056", "MEAN_MOTION": 14.78925109, "ECCENTRICITY": 0.0012193, "INCLINATION": 97.7931, "RA_OF_ASC_NODE": 33.0879, "ARG_OF_PERICENTER": 15.762, "MEAN_ANOMALY": 344.3969, "EPHEMERIS_TYPE": 0, "CLASSIFICATION_TYPE": "U", "NORAD_CAT_ID": 32783, "ELEMENT_SET_NO": 999, "REV_AT_EPOCH": 95071, "BSTAR": 0.00011527, "MEAN_MOTION_DOT": 8e-06, "MEAN_MOTION_DDOT": 0}, "tle": {"line1": "1 32783U 08021A   25343.15249029  .00000800  00000+0  11527-3 0  9999", "line2": "2 32783  97.7931  33.0879 0012193  15.7620 344.3969 14.78925109950714"}}, "geometry": {"type": "Point", "coordinates": [81.86313404491358, -79.64192162646593]}}, {"type": "Feature", "properties": {"norad_id": 33320, "name": "HUANJING 1A (HJ-1A)", "group": "resource", "lat": 82.30203406634003, "lon": -112.36126409737614, "alt_km": 601.0333779604489, "timestamp": "2025-12-09T09:46:47.303624+00:00", "meta": {"OBJECT_NAME": "HUANJING 1A (HJ-1A)", "OBJECT_ID": "2008-041A", "EPOCH": "2025-12-09T04:31:25.695840", "MEAN_MOTION": 14.83376348, "ECCENTRICITY": 0.0020365, "INCLINATION": 97.654, "RA_OF_ASC_NODE": 331.6349, "ARG_OF_PERICENTER": 45.4668, "MEAN_ANOMALY": 314.8206, "EPHEMERIS_TYPE": 0, "CLASSIFICATION_TYPE": "U", "NORAD_CAT_ID": 33320, "ELEMENT_SET_NO": 999, "REV_AT_EPOCH": 93023, "BSTAR": 0.00030716, "MEAN_MOTION_DOT": 2.477e-05, "MEAN_MOTION_DDOT": 0}, "tle": {"line1": "1 33320U 08041A   25343.18849185  .00002477  00000+0  30716-3 0  9994", "line2": "2 33320  97.6540 331.6349 0020365  45.4668 314.8206 14.83376348930230"}}, "geometry": {"type": "Point", "coordinates": [-112.36126409737614, 82.30203406634003]}}, {"type": "Feature", "properties": {"norad_id": 33321, "name": "HUANJING 1B (HJ-1B)", "group": "resource", "lat": -42.92810950406652, "lon": -17.277244202200425, "alt_km": 644.1112001982756, "timestamp": "2025-12-09T09:46:47.303635+00:00", "meta": {"OBJECT_NAME": "HUANJING 1B (HJ-1B)", "OBJECT_ID": "2008-041B", "EPOCH": "2025-12-09T05:07:01.255872", "MEAN_MOTION": 14.82807974, "ECCENTRICITY": 0.0038258, "INCLINATION": 97.6396, "RA_OF_ASC_NODE": 335.365, "ARG_OF_PERICENTER": 86.8036, "MEAN_ANOMALY": 273.7555, "EPHEMERIS_TYPE": 0, "CLASSIFICATION_TYPE": "U", "NORAD_CAT_ID": 33321, "ELEMENT_SET_NO": 999, "REV_AT_EPOCH": 93025, "BSTAR": 0.00029206, "MEAN_MOTION_DOT": 2.341e-05, "MEAN_MOTION_DDOT": 0}, "tle": {"line1": "1 33321U 08041B   25343.21320898  .00002341  00000+0  29206-3 0  9996", "line2": "2 33321  97.6396 335.3650 0038258  86.8036 273.7555 14.82807974930259"}}, "geometry": {"type": "Point", "coordinates": [-17.277244202200425, -42.92810950406652]}}, {"type": "Feature", "properties": {"norad_id": 33331, "name": "GEOEYE 1", "group": "resource", "lat": 20.91907808834639, "lon": -122.13961667934001, "alt_km": 678.9667743338978, "timestamp": "2025-12-09T09:46:47.303659+00:00", "meta": {"OBJECT_NAME": "GEOEYE 1", "OBJECT_ID": "2008-042A", "EPOCH": "2025-12-09T04:08:20.057568", "MEAN_MOTION": 14.64804488, "ECCENTRICITY": 0.0002783, "INCLINATION": 98.1256, "RA_OF_ASC_NODE": 54.4977, "ARG_OF_PERICENTER": 292.4999, "MEAN_ANOMALY": 67.5909, "EPHEMERIS_TYPE": 0, "CLASSIFICATION_TYPE": "U", "NORAD_CAT_ID": 33331, "ELEMENT_SET_NO": 999, "REV_AT_EPOCH": 92233, "BSTAR": 0.00018692, "MEAN_MOTION_DOT": 9.5e-06, "MEAN_MOTION_DDOT": 0}, "tle": {"line1": "1 33331U 08042A   25343.17245437  .00000950  00000+0  18692-3 0  9999", "line2": "2 33331  98.1256  54.4977 0002783 292.4999  67.5909 14.64804488922338"}}, "geometry": {"type": "Point", "coordinates": [-122.13961667934001, 20.91907808834639]}}, {"type": "Feature", "properties": {"norad_id": 33396, "name": "THEOS", "group": "resource", "lat": -11.094673073768892, "lon": -140.10277165947315, "alt_km": 829.356866452883, "timestamp": "2025-12-09T09:46:47.303672+00:00", "meta": {"OBJECT_NAME": "THEOS", "OBJECT_ID": "2008-049A", "EPOCH": "2025-12-09T05:30:03.090816", "MEAN_MOTION": 14.20095168, "ECCENTRICITY": 0.000111, "INCLINATION": 98.5868, "RA_OF_ASC_NODE": 41.4221, "ARG_OF_PERICENTER": 95.8109, "MEAN_ANOMALY": 264.3194, "EPHEMERIS_TYPE": 0, "CLASSIFICATION_TYPE": "U", "NORAD_CAT_ID": 33396, "ELEMENT_SET_NO": 999, "REV_AT_EPOCH": 89100, "BSTAR": 8.0933e-05, "MEAN_MOTION_DOT": 1.3e-06, "MEAN_MOTION_DDOT": 0}, "tle": {"line1": "1 33396U 08049A   25343.22920244  .00000130  00000+0  80933-4 0  9997", "line2": "2 33396  98.5868  41.4221 0001110  95.8109 264.3194 14.20095168891002"}}, "geometry": {"type": "Point", "coordinates": [-140.10277165947315, -11.094673073768892]}}, {"type": "Feature", "properties": {"norad_id": 33412, "name": "COSMO-SKYMED 3", "group": "resource", "lat": -22.2356132889646, "lon": -163.02559424046382, "alt_km": 565.7055029834291, "timestamp": "2025-12-09T09:46:47.303683+00:00", "meta": {"OBJECT_NAME": "COSMO-SKYMED 3", "OBJECT_ID": "2008-054A", "EPOCH": "2025-12-09T03:29:53.468736", "MEAN_MOTION": 15.052975, "ECCENTRICITY": 0.0015807, "INCLINATION": 97.8453, "RA_OF_ASC_NODE": 193.477, "ARG_OF_PERICENTER": 186.3283, "MEAN_ANOMALY": 173.7746, "EPHEMERIS_TYPE": 0, "CLASSIFICATION_TYPE": "U", "NORAD_CAT_ID": 33412, "ELEMENT_SET_NO": 999, "REV_AT_EPOCH": 92833, "BSTAR": 0.00041584, "MEAN_MOTION_DOT": 5.9e-05, "MEAN_MOTION_DDOT": 0}, "tle": {"line1": "1 33412U 08054A   25343.14575774  .00005900  00000+0  41584-3 0  9995", "line2": "2 33412  97.8453 193.4770 0015807 186.3283 173.7746 15.05297500928338"}}, "geometry": {"type": "Point", "coordinates": [-163.02559424046382, -22.2356132889646]}}, {"type": "Feature", "properties": {"norad_id": 33446, "name": "YAOGAN-4", "group": "resource", "lat": -49.52811067743139, "lon": 84.15176982820465, "alt_km": 630.2571476638159, "timestamp": "2025-12-09T09:46:47.303694+00:00", "meta": {"OBJECT_NAME": "YAOGAN-4", "OBJECT_ID": "2008-061A", "EPOCH": "2025-12-08T19:47:11.729184", "MEAN_MOTION": 14.82664885, "ECCENTRICITY": 0.00139192, "INCLINATION": 97.9177, "RA_OF_ASC_NODE": 272.962, "ARG_OF_PERICENTER": 336.595, "MEAN_ANOMALY": 23.4628, "EPHEMERIS_TYPE": 0, "CLASSIFICATION_TYPE": "U", "NORAD_CAT_ID": 33446, "ELEMENT_SET_NO": 999, "REV_AT_EPOCH": 91745, "BSTAR": 0.00038742009, "MEAN_MOTION_DOT": 3.075e-05, "MEAN_MOTION_DDOT": 0}, "tle": {"line1": "1 33446U 08061A   25342.82444131  .00003075  00000+0  38742-3 0  9999", "line2": "2 33446  97.9177 272.9620 0013919 336.5950  23.4628 14.82664885917457"}}, "geometry": {"type": "Point", "coordinates": [84.15176982820465, -49.52811067743139]}}]}